KUIPER-00250            
1 67155U 25301Y   26009.23531155  .00032621  00000+0  91960-3 0  9998
2 67155  51.8719 352.5282 0006743 169.6297 190.4829 15.36107502  4629
KUIPER-00251            
1 67156U 25301Z   26009.63623630  .00022447  00000+0  65503-3 0  9992
2 67156  51.8670 350.7075 0009077 179.8778 180.2211 15.35215342  4843
KUIPER-00252            
1 67157U 25301AA  26009.64356843  .00020505  00000+0  60578-3 0  9993
2 67157  51.8665 350.7532 0009838 192.0628 168.0123 15.34879962  4650
KUIPER-00261            
1 67158U 25301AB  26009.23450330  .00051937  00000+0  14562-2 0  9999
2 67158  51.8702 352.5218 0006048 171.1116 188.9978 15.36065772  4594
KUIPER-00265            
1 67159U 25301AC  26009.91668981 -.01104108  00000+0 -43113-1 0  9993
2 67159  51.8786 349.3270 0001318 128.9429  11.1776 15.28374926  4724
GALILEO 33              
1 67160U 25302A   25352.14605887 -.00000007  00000+0  00000+0 0  9994
2 67160  54.2406 107.2544 0008423 237.6458 122.2317  1.72906186    28
GALILEO B               
1 67161U 25302B   26007.95780000 -.00000021  00000+0  00000+0 0  9999
2 67161  54.2395 106.6121 0005078 260.5272  99.4223  1.72972217   391
GALILEO 33 (139)        
1 67162U 25302C   25356.18244914  .00000006  00000+0  00000+0 0  9992
2 67162  54.2447 107.1379 0000312 196.8367 159.4994  1.73130437   127
STARLINK-35755          
1 67163U 25303A   25351.60835648 -.00002699  85337-5  00000+0 0  9999
2 67163  43.0100  69.0834 0011500 323.6500   9.4800 16.01284782    10
STARLINK-36201          
1 67164U 25303B   25351.60835648 -.00002699  85337-5  00000+0 0  9990
2 67164  43.0100  69.0834 0011500 323.6500   9.4800 16.01284782    11
STARLINK-36186          
1 67165U 25303C   25351.60835648 -.00002699  85337-5  00000+0 0  9991
2 67165  43.0100  69.0834 0011500 323.6500   9.4800 16.01284782    12
STARLINK-36174          
1 67166U 25303D   25351.60835648 -.00002699  85337-5  00000+0 0  9992
2 67166  43.0100  69.0834 0011500 323.6500   9.4800 16.01284782    13
